     2              NAVIGATION DATA                         RINEX VERSION / TYPE
CCRINEXN V1.6.0 UX  CDDIS               02-MAR-20 18:31     PGM / RUN BY / DATE 
IGS BROADCAST EPHEMERIS FILE                                COMMENT             
    0.9313D-08  0.0000D+00 -0.5960D-07  0.0000D+00          ION ALPHA           
    0.9011D+05  0.0000D+00 -0.1966D+06  0.0000D+00          ION BETA            
    0.186264514923D-08 0.355271367880D-14   233472     2095 DELTA-UTC: A0,A1,T,W
    18                                                      LEAP SECONDS        
                                                            END OF HEADER       
22 20  3  1 12  0  0.0-0.785226933658D-03-0.341060513165D-12 0.000000000000D+00
    0.390000000000D+02-0.151250000000D+02 0.556416034104D-08 0.193357494628D+01
   -0.862404704094D-06 0.713973992970D-02 0.584125518799D-05 0.515355675888D+04
    0.432000000000D+05 0.147148966789D-06-0.746429800094D+00-0.149011611938D-07
    0.929916496218D+00 0.252468750000D+03-0.121523173087D+01-0.847785313661D-08
    0.151434879299D-09 0.100000000000D+01 0.209500000000D+04 0.000000000000D+00
    0.200000000000D+01 0.000000000000D+00-0.181607902050D-07 0.390000000000D+02
    0.405420000000D+05 0.400000000000D+01 0.000000000000D+00 0.000000000000D+00
23 20  3  1 12  0  0.0-0.132784247398D-03 0.261479726760D-11 0.000000000000D+00
    0.700000000000D+02-0.168125000000D+02 0.515914347046D-08 0.138864614531D+01
   -0.827014446259D-06 0.135344456649D-01 0.943988561630D-05 0.515365799332D+04
    0.432000000000D+05-0.298023223877D-06 0.360007656610D+00 0.856816768646D-07
    0.943811264339D+00 0.195968750000D+03-0.219181989421D+01-0.839999275056D-08
   -0.280368821344D-09 0.100000000000D+01 0.209500000000D+04 0.000000000000D+00
    0.200000000000D+01 0.000000000000D+00-0.200234353542D-07 0.700000000000D+02
    0.360180000000D+05 0.400000000000D+01 0.000000000000D+00 0.000000000000D+00
24 20  3  1 12  0  0.0-0.978354364634D-05-0.568434188608D-12 0.000000000000D+00
    0.100000000000D+02 0.564062500000D+02 0.508592613495D-08 0.902319038193D+00
    0.317022204399D-05 0.955939060077D-02 0.928714871407D-05 0.515366539764D+04
    0.432000000000D+05-0.931322574615D-07 0.137165965490D+01 0.115483999252D-06
    0.936657226276D+00 0.186218750000D+03 0.663515633701D+00-0.840249285470D-08
   -0.193936649668D-09 0.100000000000D+01 0.209500000000D+04 0.000000000000D+00
    0.200000000000D+01 0.000000000000D+00 0.279396772385D-08 0.100000000000D+02
    0.360180000000D+05 0.400000000000D+01 0.000000000000D+00 0.000000000000D+00
25 20  3  1 12  0  0.0-0.110859982669D-04 0.170530256582D-11 0.000000000000D+00
    0.290000000000D+02 0.350625000000D+02 0.455090384913D-08-0.976422302080D+00
    0.185705721378D-05 0.915861711837D-02 0.477209687233D-05 0.515358343124D+04
    0.432000000000D+05 0.108033418655D-06 0.247968872698D+01 0.208616256714D-06
    0.966706110755D+00 0.289343750000D+03 0.904848340165D+00-0.828820237975D-08
   -0.117504894550D-09 0.100000000000D+01 0.209500000000D+04 0.000000000000D+00
    0.200000000000D+01 0.000000000000D+00 0.558793544769D-08 0.290000000000D+02
    0.360180000000D+05 0.400000000000D+01 0.000000000000D+00 0.000000000000D+00
26 20  3  1 12  0  0.0 0.158784445375D-03 0.761701812735D-11 0.000000000000D+00
    0.107000000000D+03 0.288750000000D+02 0.484055877156D-08-0.163349606087D+01
    0.148825347424D-05 0.467882549856D-02 0.454671680927D-05 0.515357640839D+04
    0.432000000000D+05-0.260770320892D-07 0.244600786895D+01-0.447034835815D-07
    0.947811587494D+00 0.286156250000D+03 0.198212154480D+00-0.836356266167D-08
   -0.428589281035D-10 0.100000000000D+01 0.209500000000D+04 0.000000000000D+00
    0.200000000000D+01 0.000000000000D+00 0.745058059692D-08 0.107000000000D+03
    0.391680000000D+05 0.400000000000D+01 0.000000000000D+00 0.000000000000D+00
27 20  3  1 12  0  0.0-0.225979369134D-03-0.109139364213D-10 0.000000000000D+00
    0.104000000000D+03-0.425312500000D+02 0.391623455546D-08 0.286142947848D+01
   -0.217370688915D-05 0.796017399989D-02 0.732205808163D-05 0.515366377449D+04
    0.432000000000D+05-0.391155481338D-07-0.275998221883D+01-0.856816768646D-07
    0.978577420329D+00 0.248343750000D+03 0.510594031720D+00-0.779568186430D-08
   -0.600024993449D-10 0.100000000000D+01 0.209500000000D+04 0.000000000000D+00
    0.200000000000D+01 0.000000000000D+00 0.139698386192D-08 0.104000000000D+03
    0.360210000000D+05 0.400000000000D+01 0.000000000000D+00 0.000000000000D+00
28 20  3  1 12  0  0.0 0.735885929316D-03-0.238742359215D-11 0.000000000000D+00
    0.107000000000D+03 0.323750000000D+02 0.410338520818D-08-0.271040554018D+01
    0.167824327946D-05 0.186031929916D-01 0.439770519733D-05 0.515366654015D+04
    0.432000000000D+05 0.171363353729D-06 0.257016810065D+01 0.372529029846D-07
    0.978687646817D+00 0.303406250000D+03-0.141423202369D+01-0.773782231136D-08
   -0.735744932444D-10 0.100000000000D+01 0.209500000000D+04 0.000000000000D+00
    0.400000000000D+01 0.000000000000D+00-0.111758708954D-07 0.107000000000D+03
    0.360180000000D+05 0.400000000000D+01 0.000000000000D+00 0.000000000000D+00
29 20  3  1 12  0  0.0-0.457572750747D-04-0.932232069317D-11 0.000000000000D+00
    0.270000000000D+02-0.451250000000D+02 0.384658879729D-08-0.307526516795D+01
   -0.233016908169D-05 0.113766768482D-02 0.691413879394D-05 0.515362089539D+04
    0.432000000000D+05-0.111758708954D-07-0.269055305574D+01-0.689178705216D-07
    0.985956085074D+00 0.260156250000D+03 0.188430419160D+01-0.777603818892D-08
   -0.101432796512D-09 0.100000000000D+01 0.209500000000D+04 0.000000000000D+00
    0.200000000000D+01 0.000000000000D+00-0.102445483208D-07 0.270000000000D+02
    0.360180000000D+05 0.400000000000D+01 0.000000000000D+00 0.000000000000D+00
30 20  3  1 12  0  0.0-0.165258068591D-03-0.886757334229D-11 0.000000000000D+00
    0.820000000000D+02 0.689687500000D+02 0.497949313016D-08-0.422457606198D-01
    0.337138772011D-05 0.430514733307D-02 0.859238207340D-05 0.515368588257D+04
    0.432000000000D+05 0.279396772385D-07 0.146636794585D+01 0.316649675369D-07
    0.938722154163D+00 0.199250000000D+03-0.293195794843D+01-0.834999066777D-08
   -0.118576367753D-09 0.100000000000D+01 0.209500000000D+04 0.000000000000D+00
    0.200000000000D+01 0.000000000000D+00 0.372529029846D-08 0.820000000000D+02
    0.360180000000D+05 0.400000000000D+01 0.000000000000D+00 0.000000000000D+00
31 20  3  1 12  0  0.0-0.265804119408D-04-0.250111042988D-11 0.000000000000D+00
    0.400000000000D+02 0.557500000000D+02 0.457197615544D-08-0.452727797999D+00
    0.290013849735D-05 0.963651970960D-02 0.809691846371D-05 0.515379108810D+04
    0.432000000000D+05 0.176951289177D-06 0.145758882085D+01 0.000000000000D+00
    0.957833107376D+00 0.222875000000D+03 0.124068278525D+00-0.817819779762D-08
   -0.614311302817D-10 0.100000000000D+01 0.209500000000D+04 0.000000000000D+00
    0.200000000000D+01 0.000000000000D+00-0.135041773319D-07 0.400000000000D+02
    0.398760000000D+05 0.400000000000D+01 0.000000000000D+00 0.000000000000D+00
32 20  3  1 12  0  0.0 0.225425697863D-03 0.943600753089D-11 0.000000000000D+00
    0.107000000000D+03-0.220937500000D+02 0.471948229967D-08-0.267270914026D+01
   -0.109337270260D-05 0.364119990263D-02 0.904686748982D-05 0.515368824387D+04
    0.432000000000D+05 0.558793544769D-08 0.375773417957D+00-0.122934579849D-06
    0.957144788328D+00 0.201812500000D+03-0.251373740065D+01-0.803962059675D-08
   -0.232509684962D-09 0.100000000000D+01 0.209500000000D+04 0.000000000000D+00
    0.200000000000D+01 0.000000000000D+00 0.465661287308D-09 0.107000000000D+03
    0.360180000000D+05 0.400000000000D+01 0.000000000000D+00 0.000000000000D+00
 2 20  3  1 13 59 44.0-0.414139591157D-03-0.682121026330D-11 0.000000000000D+00
    0.100000000000D+01-0.370625000000D+02 0.429482175371D-08 0.201377696349D+01
   -0.200793147087D-05 0.198009833693D-01 0.895187258720D-05 0.515364794731D+04
    0.503840000000D+05 0.268220901489D-06-0.177914809376D+01-0.298023223877D-06
    0.957873805757D+00 0.199843750000D+03-0.165271523345D+01-0.775853745994D-08
    0.308584282345D-09 0.100000000000D+01 0.209500000000D+04 0.000000000000D+00
    0.200000000000D+01 0.000000000000D+00-0.176951289177D-07 0.100000000000D+01
    0.439560000000D+05 0.400000000000D+01 0.000000000000D+00 0.000000000000D+00
 6 20  3  1 13 59 44.0-0.220911111683D-03-0.886757334229D-11 0.000000000000D+00
    0.270000000000D+02-0.191250000000D+02 0.390159108836D-08 0.195742296428D+01
   -0.936910510063D-06 0.192372966558D-02 0.903382897377D-05 0.515376420975D+04
    0.503840000000D+05 0.186264514923D-07-0.171288000113D+01 0.298023223877D-07
    0.978407315140D+00 0.212718750000D+03-0.111063041837D+01-0.776389482595D-08
    0.332156692802D-09 0.100000000000D+01 0.209500000000D+04 0.000000000000D+00
    0.200000000000D+01 0.000000000000D+00 0.465661287308D-08 0.270000000000D+02
    0.432180000000D+05 0.400000000000D+01 0.000000000000D+00 0.000000000000D+00
 8 20  3  1 13 59 44.0-0.255769118667D-04-0.136424205266D-11 0.000000000000D+00
    0.120000000000D+02-0.382187500000D+02 0.413910098160D-08-0.219113321802D+01
   -0.197440385818D-05 0.524728395976D-02 0.711530447006D-05 0.515363718414D+04
    0.503840000000D+05-0.782310962677D-07-0.277361904085D+01-0.279396772385D-07
    0.970185662870D+00 0.250000000000D+03-0.159483042652D+00-0.799283293357D-08
   -0.782175437889D-10 0.100000000000D+01 0.209500000000D+04 0.000000000000D+00
    0.200000000000D+01 0.000000000000D+00 0.512227416039D-08 0.120000000000D+02
    0.432270000000D+05 0.400000000000D+01 0.000000000000D+00 0.000000000000D+00
